NORAD_CAT_ID,OBJECT_NAME,OBJECT_TYPE,EPOCH,MEAN_MOTION,ECCENTRICITY,INCLINATION,RA_OF_ASC_NODE,ARG_OF_PERICENTER,MEAN_ANOMALY,BSTAR,MEAN_MOTION_DOT,MEAN_MOTION_DDOT,TLE_LINE0,TLE_LINE1,TLE_LINE2,SEMIMAJOR_AXIS,PERIOD,APOGEE,PERIGEE,DECAYED
52990.0,STARLINK-4286,PAYLOAD,2024-03-02 14:58:46,15.08849669,0.0001885,53.2177,172.9311,61.8395,298.2787,0.00017878,2.559e-05,0.0,0 STARLINK-4286,1 52990U 22076E   24062.62414881  .00002559  00000-0  17878-3 0  9995,2 52990  53.2177 172.9311 0001885  61.8395 298.2787 15.08849669 91436,6917.851,95.437,541.02,538.412,0.0
52990.0,STARLINK-4286,PAYLOAD,2024-03-03 00:31:05,15.08844537,0.0001745,53.2188,171.1459,74.0815,286.0369,7.5414e-05,9.12e-06,0.0,0 STARLINK-4286,1 52990U 22076E   24063.02158935  .00000912  00000-0  75414-4 0  9997,2 52990  53.2188 171.1459 0001745  74.0815 286.0369 15.08844537 91968,6917.867,95.437,540.939,538.524,0.0
52990.0,STARLINK-4286,PAYLOAD,2024-03-03 13:14:10,15.08843549,0.0001583,53.2177,168.7659,80.0039,280.1132,-1.9437e-05,-5.97e-06,0.0,0 STARLINK-4286,1 52990U 22076E   24063.55150944 -.00000597  00000-0 -19437-4 0  9991,2 52990  53.2177 168.7659 0001583  80.0039 280.1132 15.08843549 91577,6917.87,95.437,540.83,538.639,0.0
52990.0,STARLINK-4286,PAYLOAD,2024-03-03 16:24:56,15.08845849,0.0001607,53.218,168.1688,85.2961,274.8214,2.602e-05,1.26e-06,0.0,0 STARLINK-4286,1 52990U 22076E   24063.68398716  .00000126  00000-0  26020-4 0  9998,2 52990  53.2180 168.1688 0001607  85.2961 274.8214 15.08845849 91593,6917.863,95.437,540.839,538.616,0.0
52990.0,STARLINK-4286,PAYLOAD,2024-03-04 13:04:56,15.08862089,0.0001687,53.2174,164.3066,90.9249,269.1937,0.0003408,5.143e-05,0.0,0 STARLINK-4286,1 52990U 22076E   24064.54509673  .00005143  00000-0  34080-3 0  9998,2 52990  53.2174 164.3066 0001687  90.9249 269.1937 15.08862089 92195,6917.813,95.436,540.845,538.511,0.0
52990.0,STARLINK-4286,PAYLOAD,2024-03-05 12:55:44,15.08823419,0.0001488,53.2173,159.8464,94.965,265.1512,-0.00028487,-4.817e-05,0.0,0 STARLINK-4286,1 52990U 22076E   24065.53871303 -.00004817  00000-0 -28487-3 0  9993,2 52990  53.2173 159.8464 0001488  94.9650 265.1512 15.08823419 91877,6917.931,95.439,540.825,538.767,0.0
52990.0,STARLINK-4286,PAYLOAD,2024-03-05 16:06:31,15.08821374,0.0001397,53.2174,159.2524,84.0942,276.021,-0.00020041,-3.474e-05,0.0,0 STARLINK-4286,1 52990U 22076E   24065.67119502 -.00003474  00000-0 -20041-3 0  9990,2 52990  53.2174 159.2524 0001397  84.0942 276.0210 15.08821374 92361,6917.937,95.439,540.769,538.836,0.0
52990.0,STARLINK-4286,PAYLOAD,2024-03-06 11:11:09,15.08833501,0.0001386,53.2171,155.6874,97.0465,263.0684,0.0005154,7.923e-05,0.0,0 STARLINK-4286,1 52990U 22076E   24066.46608286  .00007923  00000-0  51540-3 0  9999,2 52990  53.2171 155.6874 0001386  97.0465 263.0684 15.08833501 92487,6917.9,95.438,540.724,538.806,0.0
52990.0,STARLINK-4286,PAYLOAD,2024-03-06 12:46:32,15.08838192,0.0001429,53.2169,155.3887,99.4375,260.6779,0.00083115,0.00012964,0.0,0 STARLINK-4286,1 52990U 22076E   24066.53232258  .00012964  00000-0  83115-3 0  9993,2 52990  53.2169 155.3887 0001429  99.4375 260.6779 15.08838192 92028,6917.886,95.438,540.739,538.762,0.0
52990.0,STARLINK-4286,PAYLOAD,2024-03-07 12:37:19,15.08850376,0.0001534,53.2173,150.9288,99.3364,260.7802,0.00053132,8.18e-05,0.0,0 STARLINK-4286,1 52990U 22076E   24067.52592175  .00008180  00000-0  53132-3 0  9991,2 52990  53.2173 150.9288 0001534  99.3364 260.7802 15.08850376 92175,6917.849,95.437,540.775,538.652,0.0
52990.0,STARLINK-4286,PAYLOAD,2024-03-08 12:28:06,15.08857453,0.0001608,53.2169,146.4702,97.309,262.8085,0.00037668,5.715e-05,0.0,0 STARLINK-4286,1 52990U 22076E   24068.51951487  .00005715  00000-0  37668-3 0  9993,2 52990  53.2169 146.4702 0001608  97.3090 262.8085 15.08857453 92794,6917.827,95.436,540.804,538.58,0.0
52990.0,STARLINK-4286,PAYLOAD,2024-03-09 12:18:53,15.08845316,0.0001496,53.2162,142.0088,87.4624,272.6539,8.3747e-05,1.045e-05,0.0,0 STARLINK-4286,1 52990U 22076E   24069.51311641  .00001045  00000-0  83747-4 0  9998,2 52990  53.2162 142.0088 0001496  87.4624 272.6539 15.08845316 92949,6917.864,95.437,540.764,538.694,0.0
52990.0,STARLINK-4286,PAYLOAD,2024-03-09 13:54:16,15.08846294,0.0001466,53.2159,141.711,85.0951,275.0208,0.00010421,1.371e-05,0.0,0 STARLINK-4286,1 52990U 22076E   24069.57935585  .00001371  00000-0  10421-3 0  9993,2 52990  53.2159 141.7110 0001466  85.0951 275.0208 15.08846294 92486,6917.861,95.437,540.74,538.712,0.0
52990.0,STARLINK-4286,PAYLOAD,2024-03-09 21:51:12,15.08840877,0.0001487,53.2155,140.2235,81.1002,279.0158,1.7947e-05,-2e-08,0.0,0 STARLINK-4286,1 52990U 22076E   24069.91055814 -.00000002  00000-0  17947-4 0  9991,2 52990  53.2155 140.2235 0001487  81.1002 279.0158 15.08840877 92536,6917.878,95.437,540.771,538.714,0.0
52990.0,STARLINK-4286,PAYLOAD,2024-03-10 13:45:03,15.08848596,0.0001558,53.2156,137.2498,84.3144,275.8026,8.683e-05,1.094e-05,0.0,0 STARLINK-4286,1 52990U 22076E   24070.57295541  .00001094  00000-0  86830-4 0  9996,2 52990  53.2156 137.2498 0001558  84.3144 275.8026 15.08848596 92630,6917.854,95.437,540.797,538.641,0.0
52990.0,STARLINK-4286,PAYLOAD,2024-03-10 21:41:59,15.08843538,0.0001551,53.2158,135.7631,82.1563,277.9605,2.2562e-05,7.1e-07,0.0,0 STARLINK-4286,1 52990U 22076E   24070.90415627  .00000071  00000-0  22562-4 0  9998,2 52990  53.2158 135.7631 0001551  82.1563 277.9605 15.08843538 92680,6917.87,95.437,540.808,538.662,0.0
52990.0,STARLINK-4286,PAYLOAD,2024-03-11 04:03:32,15.08838673,0.0001683,53.2162,134.5725,84.1131,276.0053,5.9217e-05,6.54e-06,0.0,0 STARLINK-4286,1 52990U 22076E   24071.16912135  .00000654  00000-0  59217-4 0  9997,2 52990  53.2162 134.5725 0001683  84.1131 276.0053 15.08838673 93193,6917.884,95.438,540.914,538.585,0.0
52990.0,STARLINK-4286,PAYLOAD,2024-03-11 10:25:04,15.08840379,0.0001517,53.2154,133.384,84.1342,275.9823,9.5788e-05,1.237e-05,0.0,0 STARLINK-4286,1 52990U 22076E   24071.43408004  .00001237  00000-0  95788-4 0  9993,2 52990  53.2154 133.3840 0001517  84.1342 275.9823 15.08840379 92760,6917.879,95.438,540.794,538.695,0.0
52990.0,STARLINK-4286,PAYLOAD,2024-03-12 10:15:51,15.08840175,0.00014,53.2155,128.9225,87.713,272.4022,0.00014357,1.998e-05,0.0,0 STARLINK-4286,1 52990U 22076E   24072.42767919  .00001998  00000-0  14357-3 0  9992,2 52990  53.2155 128.9225 0001400  87.7130 272.4022 15.08840175 93389,6917.88,95.438,540.713,538.776,0.0
52990.0,STARLINK-4286,PAYLOAD,2024-03-13 10:06:38,15.08842293,0.0001568,53.2156,124.4622,90.9996,269.1176,7.9398e-05,9.76e-06,0.0,0 STARLINK-4286,1 52990U 22076E   24073.42127840  .00000976  00000-0  79398-4 0  9998,2 52990  53.2156 124.4622 0001568  90.9996 269.1176 15.08842293 93064,6917.873,95.437,540.823,538.654,0.0
52990.0,STARLINK-4286,PAYLOAD,2024-03-14 03:35:53,15.08839532,0.00016,53.2165,121.1929,92.1623,267.9552,5.8531e-05,6.44e-06,0.0,0 STARLINK-4286,1 52990U 22076E   24074.14992104  .00000644  00000-0  58531-4 0  9999,2 52990  53.2165 121.1929 0001600  92.1623 267.9552 15.08839532 93646,6917.882,95.438,540.854,538.64,0.0
52990.0,STARLINK-4286,PAYLOAD,2024-03-14 06:46:39,15.08841707,0.0001586,53.2165,120.5982,92.007,268.1104,7.3781e-05,8.86e-06,0.0,0 STARLINK-4286,1 52990U 22076E   24074.28239936  .00000886  00000-0  73781-4 0  9993,2 52990  53.2165 120.5982 0001586  92.0070 268.1104 15.08841707 93199,6917.875,95.437,540.837,538.643,0.0
52990.0,STARLINK-4286,PAYLOAD,2024-03-14 09:57:25,15.08844382,0.0001558,53.2162,120.003,91.8375,268.2796,9.1698e-05,1.172e-05,0.0,0 STARLINK-4286,1 52990U 22076E   24074.41487683  .00001172  00000-0  91698-4 0  9998,2 52990  53.2162 120.0030 0001558  91.8375 268.2796 15.08844382 93212,6917.867,95.437,540.81,538.654,0.0
52990.0,STARLINK-4286,PAYLOAD,2024-03-15 03:26:40,15.08834249,0.000153,53.2158,116.732,90.3046,269.8122,-1.2033e-06,-3.07e-06,0.0,0 STARLINK-4286,1 52990U 22076E   24075.14352676 -.00000307  00000-0 -12033-5 0  9990,2 52990  53.2158 116.7320 0001530  90.3046 269.8122 15.08834249 93794,6917.898,95.438,540.821,538.705,0.0
52990.0,STARLINK-4286,PAYLOAD,2024-03-15 09:48:13,15.08834806,0.0001505,53.2161,115.5418,89.9776,270.1389,-1.3119e-06,-3.09e-06,0.0,0 STARLINK-4286,1 52990U 22076E   24075.40848709 -.00000309  00000-0 -13119-5 0  9994,2 52990  53.2161 115.5418 0001505  89.9776 270.1389 15.08834806 93361,6917.896,95.438,540.802,538.72,0.0
52990.0,STARLINK-4286,PAYLOAD,2024-03-16 09:39:00,15.08842355,0.0001468,53.216,111.0817,92.4902,267.6258,4.2897e-05,3.95e-06,0.0,0 STARLINK-4286,1 52990U 22076E   24076.40208341  .00000395  00000-0  42897-4 0  9994,2 52990  53.2160 111.0817 0001468  92.4902 267.6258 15.08842355 93984,6917.873,95.437,540.754,538.723,0.0
52990.0,STARLINK-4286,PAYLOAD,2024-03-17 11:05:10,15.08837812,0.0001683,53.2171,106.3246,92.6458,267.4726,9.8687e-05,1.283e-05,0.0,0 STARLINK-4286,1 52990U 22076E   24077.46192862  .00001283  00000-0  98687-4 0  9996,2 52990  53.2171 106.3246 0001683  92.6458 267.4726 15.08837812 94145,6917.887,95.438,540.916,538.588,0.0
52990.0,STARLINK-4286,PAYLOAD,2024-03-18 06:09:48,15.08839609,0.0001772,53.2174,102.757,81.689,278.4303,6.3554e-05,7.24e-06,0.0,0 STARLINK-4286,1 52990U 22076E   24078.25680999  .00000724  00000-0  63554-4 0  9991,2 52990  53.2174 102.7570 0001772  81.6890 278.4303 15.08839609 93794,6917.882,95.438,540.972,538.521,0.0
52990.0,STARLINK-4286,PAYLOAD,2024-03-19 01:14:25,15.08844023,0.0001614,53.2167,99.1876,92.5615,267.5562,7.5556e-05,9.15e-06,0.0,0 STARLINK-4286,1 52990U 22076E   24079.05168602  .00000915  00000-0  75556-4 0  9999,2 52990  53.2167  99.1876 0001614  92.5615 267.5562 15.08844023 94383,6917.868,95.437,540.85,538.617,0.0
52990.0,STARLINK-4286,PAYLOAD,2024-03-19 07:35:58,15.08846782,0.0001628,53.2168,97.9983,92.1142,268.0037,9.6761e-05,1.253e-05,0.0,0 STARLINK-4286,1 52990U 22076E   24079.31664388  .00001253  00000-0  96761-4 0  9997,2 52990  53.2168  97.9983 0001628  92.1142 268.0037 15.08846782 93954,6917.86,95.437,540.851,538.598,0.0
